CCSDS_OMM_VERS,COMMENT,CREATION_DATE,ORIGINATOR,OBJECT_NAME,OBJECT_ID,CENTER_NAME,REF_FRAME,TIME_SYSTEM,MEAN_ELEMENT_THEORY,EPOCH,MEAN_MOTION,ECCENTRICITY,INCLINATION,RA_OF_ASC_NODE,ARG_OF_PERICENTER,MEAN_ANOMALY,EPHEMERIS_TYPE,CLASSIFICATION_TYPE,NORAD_CAT_ID,ELEMENT_SET_NO,REV_AT_EPOCH,BSTAR,MEAN_MOTION_DOT,MEAN_MOTION_DDOT,SEMIMAJOR_AXIS,PERIOD,APOAPSIS,PERIAPSIS,OBJECT_TYPE,RCS_SIZE,COUNTRY_CODE,LAUNCH_DATE,SITE,DECAY_DATE,FILE,GP_ID,TLE_LINE0,TLE_LINE1,TLE_LINE2
3.0,GENERATED VIA SPACE-TRACK.ORG API,2009-01-28T07:28:12,18 SPCS,COSMOS 2421 DEB,2006-026TP,EARTH,TEME,UTC,SGP4,2009-01-28T10:00:50.756831,16.16316161,0.0003967,64.9601,27.7708,118.3656,241.9387,0,U,33299,999,2681,0.0028782,0.03066488,0.024589,6607.714,89.091,232.2,226.957,DEBRIS,SMALL,CIS,2006-06-25,TTMTR,2009-01-28,664928,69687578,0 COSMOS 2421 DEB,1 33299U 06026TP  09028.41725413  .03066488  24589-1  28782-2 0  9999,2 33299 064.9601 027.7708 0003967 118.3656 241.9387 16.16316161 26813
3.0,GENERATED VIA SPACE-TRACK.ORG API,2004-08-15T23:38:47,18 SPCS,SL-4 DEB,1971-077C,EARTH,TEME,UTC,SGP4,1971-09-16T03:25:13.552607,16.27416611,0.006175,65.3942,160.6841,62.7691,297.9717,0,U,5477,999,26,0.0,0.07945742,0.0,6577.632,88.483,240.114,158.88,DEBRIS,,,,,1971-09-16,33974,9034787,0 SL-4 DEB,1 05477U 71077  C 71259.14251797  .07945742 +00000-0 +00000-0 0  9993,2 05477 065.3942 160.6841 0061750 062.7691 297.9717 16.27416611000265
3.0,GENERATED VIA SPACE-TRACK.ORG API,2005-06-09T11:45:56,18 SPCS,WESTFORD NEEDLES,1963-014FE,EARTH,TEME,UTC,SGP4,1993-10-11T16:20:23.535743,15.6780027,0.0238015,83.5585,340.5087,190.8089,171.2861,0,U,20650,999,8,0.059139,0.35659978,3.2e-06,6743.338,91.848,525.705,204.701,DEBRIS,SMALL,US,1963-05-09,AFWTR,1993-10-11,145852,51808691,0 WESTFORD NEEDLES,1 20650U 63014 FE 93284.68082796  .35659978 +32000-5 +59139-1 0  9999,2 20650 083.5585 340.5087 0238015 190.8089 171.2861 15.67800270000080
3.0,GENERATED VIA SPACE-TRACK.ORG API,2004-08-16T23:25:35,18 SPCS,COSMOS 1813 DEB,1987-004C,EARTH,TEME,UTC,SGP4,1987-06-16T23:29:17.125151,15.97305531,0.0032196,72.7915,278.1862,230.9798,128.7696,0,U,17361,999,2401,0.00127,0.00590161,9.0477e-07,6660.039,90.151,303.346,260.461,DEBRIS,MEDIUM,CIS,1987-01-15,PKMTR,1987-06-27,34538,15573171,0 COSMOS 1813 DEB,1 17361U 87004  C 87167.97867043  .00590161 +90477-6 +12700-2 0  9997,2 17361 072.7915 278.1862 0032196 230.9798 128.7696 15.97305531024019
3.0,GENERATED VIA SPACE-TRACK.ORG API,2004-09-09T09:17:42,18 SPCS,SL-12 DEB,1987-079BA,EARTH,TEME,UTC,SGP4,2004-09-09T04:16:19.664832,15.26930319,0.0168161,65.5765,148.5946,29.2045,332.5201,0,U,27961,999,3474,0.60685,0.24654899,0.0,6863.136,94.306,600.412,369.59,DEBRIS,MEDIUM,CIS,1987-09-16,TTMTR,2004-09-09,43307,39168364,0 SL-12 DEB,1 27961U 87079BA  04253.17800538  .24654899  00000-0  60685+0 0  9993,2 27961 065.5765 148.5946 0168161 029.2045 332.5201 15.26930319 34746
3.0,GENERATED VIA SPACE-TRACK.ORG API,2025-01-06T17:35:48,18 SPCS,OBJECT C,2022-095C,EARTH,TEME,UTC,SGP4,2025-01-06T07:06:55.299168,16.38878278,0.000619,97.3045,103.1831,253.9231,106.1387,0,U,53369,999,13570,0.00067146,0.0727694,2.5048e-06,6546.925,87.865,172.843,164.738,UNKNOWN,MEDIUM,PRC,2022-08-09,JSC,2025-01-14,4602192,277456158,0 OBJECT C,1 53369U 22095C   25006.29647337  .07276940  25048-5  67146-3 0  9994,2 53369  97.3045 103.1831 0006190 253.9231 106.1387 16.38878278135704
3.0,GENERATED VIA SPACE-TRACK.ORG API,2008-01-23T11:10:29,18 SPCS,FENGYUN 1C DEB,1999-025CRQ,EARTH,TEME,UTC,SGP4,2007-09-24T19:58:06.287808,15.16388153,0.0185269,98.9205,294.0311,223.5111,135.3962,0,U,32122,999,1168,0.0011455,0.0003472,0.0,6894.908,94.962,644.515,389.032,DEBRIS,SMALL,PRC,1999-05-10,TSC,2008-02-07,503373,64815747,0 FENGYUN 1C DEB,1 32122U 99025CRQ 07267.83201722 +.00034720 +00000-0 +11455-2 0  9996,2 32122 098.9205 294.0311 0185269 223.5111 135.3962 15.16388153011687
3.0,GENERATED VIA SPACE-TRACK.ORG API,2022-05-25T07:36:11,18 SPCS,CZ-7 R/B,2022-050D,EARTH,TEME,UTC,SGP4,2022-05-25T06:21:01.983456,16.48028749,0.0018869,41.4866,350.611,294.1822,66.8963,0,U,52512,999,248,0.0001632,0.13236528,8.4317e-06,6522.669,87.377,156.841,132.226,ROCKET BODY,LARGE,PRC,2022-05-09,WSC,2022-05-25,3463265,204469554,0 CZ-7 R/B,1 52512U 22050D   22145.26460629  .13236528  84317-5  16320-3 0  9996,2 52512  41.4866 350.6110 0018869 294.1822  66.8963 16.48028749  2483
3.0,GENERATED VIA SPACE-TRACK.ORG API,2005-04-22T16:12:26,18 SPCS,COSMOS 523 DEB,1972-078E,EARTH,TEME,UTC,SGP4,1972-10-19T05:40:20.313407,15.38500086,0.0124847,70.1049,150.997,334.7537,24.7523,0,U,6239,999,200,0.0,0.00327996,2.7007e-05,6828.685,93.597,535.804,365.296,DEBRIS,,,,,1972-11-17,128520,41842113,0 COSMOS 523 DEB,1 06239U 72078  E 72293.23634622  .00327996 +27007-4 +00000-0 0  9991,2 06239 070.1049 150.9970 0124847 334.7537 024.7523 15.38500086002003
3.0,GENERATED VIA SPACE-TRACK.ORG API,2016-01-06T17:37:01,18 SPCS,COSMOS 1586,1984-079A,EARTH,TEME,UTC,SGP4,2016-01-03T02:47:18.180960,14.82266472,0.0760795,61.0999,283.2687,198.3624,158.8514,0,U,15147,999,23032,0.0,-2.178e-05,6.8861e-06,7000.316,97.148,1154.761,89.6,PAYLOAD,LARGE,CIS,1984-08-02,PKMTR,2016-01-06,1976842,102592419,0 COSMOS 1586,1 15147U 84079A   16003.11618265 -.00002178  68861-5  00000+0 0  9998,2 15147  61.0999 283.2687 0760795 198.3624 158.8514 14.82266472230321
3.0,GENERATED VIA SPACE-TRACK.ORG API,2004-08-17T15:27:39,18 SPCS,SL-16 DEB,2000-056D,EARTH,TEME,UTC,SGP4,2000-10-09T12:44:53.284992,16.26266087,0.0074062,64.8247,143.477,66.5817,296.907,0,U,26541,999,221,0.00097515,0.08201837,7.6969e-06,6580.734,88.546,251.337,153.861,DEBRIS,,,,,2000-10-12,35602,34736578,0 SL-16 DEB,1 26541U 00056D   00283.53117228  .08201837  76969-5  97515-3 0  9992,2 26541 064.8247 143.4770 0074062 066.5817 296.9070 16.26266087  2211
3.0,GENERATED VIA SPACE-TRACK.ORG API,2004-08-17T14:36:24,18 SPCS,COSMOS 1826 DEB,1987-025G,EARTH,TEME,UTC,SGP4,1988-08-29T19:56:40.800191,16.46904404,0.0016831,72.8547,101.7506,269.5706,90.7926,0,U,17786,999,8452,0.00019169,0.11935686,8.6929e-06,6525.641,87.436,158.489,136.522,DEBRIS,,,,,1988-08-30,34577,16171475,0 COSMOS 1826 DEB,1 17786U 87025  G 88242.83102778  .11935686 +86929-5 +19169-3 0  9998,2 17786 072.8547 101.7506 0016831 269.5706 090.7926 16.46904404084528
3.0,GENERATED VIA SPACE-TRACK.ORG API,2022-04-26T18:18:49,18 SPCS,COSMOS 1408 DEB,1982-092BGJ,EARTH,TEME,UTC,SGP4,2022-04-26T00:05:49.688448,15.63446098,0.002826,82.5187,321.0181,188.4503,171.6284,0,U,51364,999,1610,0.0073574,0.00753562,0.0,6755.848,92.104,396.805,358.621,DEBRIS,SMALL,CIS,1982-09-16,PKMTR,2022-05-10,3417035,202077703,0 COSMOS 1408 DEB,1 51364U 82092BGJ 22116.00404732  .00753562  00000-0  73574-2 0  9998,2 51364  82.5187 321.0181 0028260 188.4503 171.6284 15.63446098 16108
3.0,GENERATED VIA SPACE-TRACK.ORG API,2023-11-27T18:16:16,18 SPCS,CZ-2C DEB,2022-082E,EARTH,TEME,UTC,SGP4,2023-11-27T14:02:30.687360,15.580261,0.003127,97.5801,340.1003,246.6173,113.1793,0,U,53350,999,3718,0.0057667,0.00466153,0.0,6771.507,92.425,414.547,372.198,DEBRIS,,,,,2023-12-24,4109690,243276394,0 CZ-2C DEB,1 53350U 22082E   23331.58507740  .00466153  00000-0  57667-2 0  9996,2 53350  97.5801 340.1003 0031270 246.6173 113.1793 15.58026100 37183
3.0,GENERATED VIA SPACE-TRACK.ORG API,2011-11-15T23:06:50,18 SPCS,COSMOS 2251 DEB,1993-036ADL,EARTH,TEME,UTC,SGP4,2011-11-13T21:39:19.920960,15.1186924,0.0112262,73.7443,147.5663,236.8418,130.2462,0,U,34915,999,14246,0.0076332,0.00155103,0.0,6908.641,95.246,608.063,452.948,DEBRIS,SMALL,CIS,1993-06-16,PKMTR,2012-03-23,1188787,85904193,0 COSMOS 2251 DEB,1 34915U 93036ADL 11317.90231390  .00155103  00000-0  76332-2 0  9991,2 34915 073.7443 147.5663 0112262 236.8418 130.2462 15.11869240142462
3.0,GENERATED VIA SPACE-TRACK.ORG API,2020-05-07T16:16:08,18 SPCS,XZF CAPSULE,2020-027A,EARTH,TEME,UTC,SGP4,2020-05-07T01:01:05.268576,8.97844119,0.294289,42.8519,322.0707,112.205,28.2609,0,U,45599,999,23,0.0,-5.7e-07,0.0,9778.401,160.384,6277.942,522.59,PAYLOAD,,PRC,2020-05-05,WSC,2020-05-08,2745477,153517948,0 XZF CAPSULE,1 45599U 20027A   20128.04242209 -.00000057  00000-0  00000+0 0  9991,2 45599  42.8519 322.0707 2942890 112.2050  28.2609  8.97844119   232
3.0,GENERATED VIA SPACE-TRACK.ORG API,2004-08-15T23:35:35,18 SPCS,COSMOS 45,1964-055A,EARTH,TEME,UTC,SGP4,1964-09-14T14:01:01.170047,16.05789422,0.0087523,64.9101,170.1666,28.8119,331.6686,0,U,880,999,19,0.0,0.000969,0.0,6636.56,89.675,316.51,200.34,PAYLOAD,,,,,1964-09-18,33910,8690034,0 COSMOS 45,1 00880U 64055  A 64258.58404132  .00096900 +00000-0 +00000-0 0  9992,2 00880 064.9101 170.1666 0087523 028.8119 331.6686 16.05789422000197
3.0,GENERATED VIA SPACE-TRACK.ORG API,2014-05-19T17:36:14,18 SPCS,COSMOS 2251 DEB,1993-036BKZ,EARTH,TEME,UTC,SGP4,2014-05-10T14:21:10.600704,15.7995513,0.0030756,73.8858,106.9049,247.8374,112.1195,0,U,37333,999,25152,0.0047969,0.01023235,0.0,6708.708,91.141,351.207,309.94,DEBRIS,SMALL,CIS,1993-06-16,PKMTR,2014-05-18,1684666,95969854,0 COSMOS 2251 DEB,1 37333U 93036BKZ 14130.59803936  .01023235  00000-0  47969-2 0  9995,2 37333 073.8858 106.9049 0030756 247.8374 112.1195 15.79955130251525
3.0,GENERATED VIA SPACE-TRACK.ORG API,2004-05-29T18:14:54,18 SPCS,CZ-4 DEB,1999-057JE,EARTH,TEME,UTC,SGP4,2003-03-08T19:18:19.227743,16.11814113,0.0015961,98.3458,178.5093,297.2578,62.7117,0,U,26345,999,15686,0.018856,0.31073801,0.0,6620.012,89.34,252.443,231.311,DEBRIS,SMALL,PRC,1999-10-14,TSC,2003-03-08,7220,4878381,0 CZ-4 DEB,1 26345U 99057JE  03067.80438921 +.31073801 +00000-0 +18856-1 0  9993,2 26345 098.3458 178.5093 0015961 297.2578 062.7117 16.11814113156861
